CCSDS_OMM_VERS = 2.0
CREATION_DATE  = 
ORIGINATOR     = 

OBJECT_NAME    = STARLINK-36587
OBJECT_ID      = 2026-014A
CENTER_NAME    = EARTH
REF_FRAME      = TEME
TIME_SYSTEM    = UTC
MEAN_ELEMENT_THEORY = SGP/SGP4

EPOCH          = 2026-02-20T15:32:57.214752
MEAN_MOTION    = 15.80860632
ECCENTRICITY   = .0002961
INCLINATION    = 97.2833
RA_OF_ASC_NODE = 295.7876
ARG_OF_PERICENTER = 119.1967
MEAN_ANOMALY   = 240.9598

EPHEMERIS_TYPE = 0
CLASSIFICATION_TYPE = U
NORAD_CAT_ID   = 67532
ELEMENT_SET_NO = 999
REV_AT_EPOCH   = 589
BSTAR          = .17633E-2
MEAN_MOTION_DOT = .352342E-2
MEAN_MOTION_DDOT = 0

CCSDS_OMM_VERS = 2.0
CREATION_DATE  = 
ORIGINATOR     = 

OBJECT_NAME    = STARLINK-36417
OBJECT_ID      = 2026-014B
CENTER_NAME    = EARTH
REF_FRAME      = TEME
TIME_SYSTEM    = UTC
MEAN_ELEMENT_THEORY = SGP/SGP4

EPOCH          = 2026-02-20T13:46:44.283360
MEAN_MOTION    = 15.75289750
ECCENTRICITY   = .0002353
INCLINATION    = 97.2810
RA_OF_ASC_NODE = 295.5774
ARG_OF_PERICENTER = 87.6294
MEAN_ANOMALY   = 272.5241

EPHEMERIS_TYPE = 0
CLASSIFICATION_TYPE = U
NORAD_CAT_ID   = 67533
ELEMENT_SET_NO = 999
REV_AT_EPOCH   = 587
BSTAR          = .20697E-2
MEAN_MOTION_DOT = .321886E-2
MEAN_MOTION_DDOT = 0

CCSDS_OMM_VERS = 2.0
CREATION_DATE  = 
ORIGINATOR     = 

OBJECT_NAME    = STARLINK-36576
OBJECT_ID      = 2026-014C
CENTER_NAME    = EARTH
REF_FRAME      = TEME
TIME_SYSTEM    = UTC
MEAN_ELEMENT_THEORY = SGP/SGP4

EPOCH          = 2026-02-20T15:57:51.684192
MEAN_MOTION    = 15.75300118
ECCENTRICITY   = .0001633
INCLINATION    = 97.2837
RA_OF_ASC_NODE = 295.7634
ARG_OF_PERICENTER = 131.0539
MEAN_ANOMALY   = 229.0868

EPHEMERIS_TYPE = 0
CLASSIFICATION_TYPE = U
NORAD_CAT_ID   = 67534
ELEMENT_SET_NO = 999
REV_AT_EPOCH   = 589
BSTAR          = .20872E-2
MEAN_MOTION_DOT = .32488E-2
MEAN_MOTION_DDOT = 0

CCSDS_OMM_VERS = 2.0
CREATION_DATE  = 
ORIGINATOR     = 

OBJECT_NAME    = STARLINK-36574
OBJECT_ID      = 2026-014D
CENTER_NAME    = EARTH
REF_FRAME      = TEME
TIME_SYSTEM    = UTC
MEAN_ELEMENT_THEORY = SGP/SGP4

EPOCH          = 2026-02-20T20:00:01.999008
MEAN_MOTION    = 15.75278067
ECCENTRICITY   = .0002999
INCLINATION    = 97.2840
RA_OF_ASC_NODE = 295.9678
ARG_OF_PERICENTER = 98.0523
MEAN_ANOMALY   = 201.0840

EPHEMERIS_TYPE = 0
CLASSIFICATION_TYPE = U
NORAD_CAT_ID   = 67535
ELEMENT_SET_NO = 999
REV_AT_EPOCH   = 598
BSTAR          = -.12971E-2
MEAN_MOTION_DOT = -.190152E-2
MEAN_MOTION_DDOT = 0

CCSDS_OMM_VERS = 2.0
CREATION_DATE  = 
ORIGINATOR     = 

OBJECT_NAME    = STARLINK-36572
OBJECT_ID      = 2026-014E
CENTER_NAME    = EARTH
REF_FRAME      = TEME
TIME_SYSTEM    = UTC
MEAN_ELEMENT_THEORY = SGP/SGP4

EPOCH          = 2026-02-20T05:49:31.356192
MEAN_MOTION    = 15.75151136
ECCENTRICITY   = .0002516
INCLINATION    = 97.2822
RA_OF_ASC_NODE = 295.2665
ARG_OF_PERICENTER = 84.5655
MEAN_ANOMALY   = 275.5898

EPHEMERIS_TYPE = 0
CLASSIFICATION_TYPE = U
NORAD_CAT_ID   = 67536
ELEMENT_SET_NO = 999
REV_AT_EPOCH   = 582
BSTAR          = .15915E-2
MEAN_MOTION_DOT = .243754E-2
MEAN_MOTION_DDOT = 0

CCSDS_OMM_VERS = 2.0
CREATION_DATE  = 
ORIGINATOR     = 

OBJECT_NAME    = STARLINK-36561
OBJECT_ID      = 2026-014F
CENTER_NAME    = EARTH
REF_FRAME      = TEME
TIME_SYSTEM    = UTC
MEAN_ELEMENT_THEORY = SGP/SGP4

EPOCH          = 2026-02-20T04:26:40.709760
MEAN_MOTION    = 15.75191403
ECCENTRICITY   = .0002361
INCLINATION    = 97.2821
RA_OF_ASC_NODE = 295.1898
ARG_OF_PERICENTER = 89.6759
MEAN_ANOMALY   = 270.4777

EPHEMERIS_TYPE = 0
CLASSIFICATION_TYPE = U
NORAD_CAT_ID   = 67537
ELEMENT_SET_NO = 999
REV_AT_EPOCH   = 581
BSTAR          = .13027E-2
MEAN_MOTION_DOT = .198783E-2
MEAN_MOTION_DDOT = 0

CCSDS_OMM_VERS = 2.0
CREATION_DATE  = 
ORIGINATOR     = 

OBJECT_NAME    = STARLINK-36397
OBJECT_ID      = 2026-014G
CENTER_NAME    = EARTH
REF_FRAME      = TEME
TIME_SYSTEM    = UTC
MEAN_ELEMENT_THEORY = SGP/SGP4

EPOCH          = 2026-02-20T15:12:37.512864
MEAN_MOTION    = 15.75292488
ECCENTRICITY   = .0002279
INCLINATION    = 97.2854
RA_OF_ASC_NODE = 295.6537
ARG_OF_PERICENTER = 125.5937
MEAN_ANOMALY   = 234.5541

EPHEMERIS_TYPE = 0
CLASSIFICATION_TYPE = U
NORAD_CAT_ID   = 67538
ELEMENT_SET_NO = 999
REV_AT_EPOCH   = 588
BSTAR          = .18086E-2
MEAN_MOTION_DOT = .279917E-2
MEAN_MOTION_DDOT = 0

CCSDS_OMM_VERS = 2.0
CREATION_DATE  = 
ORIGINATOR     = 

OBJECT_NAME    = STARLINK-36573
OBJECT_ID      = 2026-014H
CENTER_NAME    = EARTH
REF_FRAME      = TEME
TIME_SYSTEM    = UTC
MEAN_ELEMENT_THEORY = SGP/SGP4

EPOCH          = 2026-02-20T20:00:01.999008
MEAN_MOTION    = 15.75315871
ECCENTRICITY   = .0001332
INCLINATION    = 97.2842
RA_OF_ASC_NODE = 295.9561
ARG_OF_PERICENTER = 71.7054
MEAN_ANOMALY   = 205.4313

EPHEMERIS_TYPE = 0
CLASSIFICATION_TYPE = U
NORAD_CAT_ID   = 67539
ELEMENT_SET_NO = 999
REV_AT_EPOCH   = 598
BSTAR          = -.17118E-2
MEAN_MOTION_DOT = -.249506E-2
MEAN_MOTION_DDOT = 0

CCSDS_OMM_VERS = 2.0
CREATION_DATE  = 
ORIGINATOR     = 

OBJECT_NAME    = STARLINK-36585
OBJECT_ID      = 2026-014J
CENTER_NAME    = EARTH
REF_FRAME      = TEME
TIME_SYSTEM    = UTC
MEAN_ELEMENT_THEORY = SGP/SGP4

EPOCH          = 2026-02-20T05:52:03.829728
MEAN_MOTION    = 15.75168967
ECCENTRICITY   = .0002718
INCLINATION    = 97.2826
RA_OF_ASC_NODE = 295.2588
ARG_OF_PERICENTER = 81.7864
MEAN_ANOMALY   = 278.3709

EPHEMERIS_TYPE = 0
CLASSIFICATION_TYPE = U
NORAD_CAT_ID   = 67540
ELEMENT_SET_NO = 999
REV_AT_EPOCH   = 582
BSTAR          = .15213E-2
MEAN_MOTION_DOT = .232876E-2
MEAN_MOTION_DDOT = 0

CCSDS_OMM_VERS = 2.0
CREATION_DATE  = 
ORIGINATOR     = 

OBJECT_NAME    = STARLINK-36579
OBJECT_ID      = 2026-014K
CENTER_NAME    = EARTH
REF_FRAME      = TEME
TIME_SYSTEM    = UTC
MEAN_ELEMENT_THEORY = SGP/SGP4

EPOCH          = 2026-02-20T05:40:52.873248
MEAN_MOTION    = 15.75157258
ECCENTRICITY   = .0002294
INCLINATION    = 97.2834
RA_OF_ASC_NODE = 295.2728
ARG_OF_PERICENTER = 73.1567
MEAN_ANOMALY   = 286.9949

EPHEMERIS_TYPE = 0
CLASSIFICATION_TYPE = U
NORAD_CAT_ID   = 67541
ELEMENT_SET_NO = 999
REV_AT_EPOCH   = 582
BSTAR          = .10905E-2
MEAN_MOTION_DOT = .165483E-2
MEAN_MOTION_DDOT = 0

CCSDS_OMM_VERS = 2.0
CREATION_DATE  = 
ORIGINATOR     = 

OBJECT_NAME    = STARLINK-35934
OBJECT_ID      = 2026-014L
CENTER_NAME    = EARTH
REF_FRAME      = TEME
TIME_SYSTEM    = UTC
MEAN_ELEMENT_THEORY = SGP/SGP4

EPOCH          = 2026-02-20T20:00:01.999008
MEAN_MOTION    = 15.75269605
ECCENTRICITY   = .0001391
INCLINATION    = 97.2842
RA_OF_ASC_NODE = 295.9809
ARG_OF_PERICENTER = 88.8833
MEAN_ANOMALY   = 244.2537

EPHEMERIS_TYPE = 0
CLASSIFICATION_TYPE = U
NORAD_CAT_ID   = 67542
ELEMENT_SET_NO = 999
REV_AT_EPOCH   = 597
BSTAR          = -.12614E-2
MEAN_MOTION_DOT = -.184906E-2
MEAN_MOTION_DDOT = 0

CCSDS_OMM_VERS = 2.0
CREATION_DATE  = 
ORIGINATOR     = 

OBJECT_NAME    = STARLINK-36581
OBJECT_ID      = 2026-014M
CENTER_NAME    = EARTH
REF_FRAME      = TEME
TIME_SYSTEM    = UTC
MEAN_ELEMENT_THEORY = SGP/SGP4

EPOCH          = 2026-02-20T15:43:38.250912
MEAN_MOTION    = 15.75263310
ECCENTRICITY   = .000178
INCLINATION    = 97.2836
RA_OF_ASC_NODE = 295.7744
ARG_OF_PERICENTER = 38.1693
MEAN_ANOMALY   = 321.9698

EPHEMERIS_TYPE = 0
CLASSIFICATION_TYPE = U
NORAD_CAT_ID   = 67543
ELEMENT_SET_NO = 999
REV_AT_EPOCH   = 589
BSTAR          = .68918E-3
MEAN_MOTION_DOT = .104262E-2
MEAN_MOTION_DDOT = 0

